GLOBALSTAR M079 [+]     
1 37188U 10054A   22260.45049906 -.00000094  00000+0  56007-4 0  9991
2 37188  52.0050 315.3271 0000372 124.9268 341.5329 12.62265140549696
GLOBALSTAR M074 [+]     
1 37189U 10054B   22260.47631877 -.00000090  00000+0  75550-4 0  9998
2 37189  52.0026 314.7274 0000504 101.0518   2.7869 12.62262926550301
GLOBALSTAR M076 [+]     
1 37190U 10054C   22260.40406520 -.00000084  00000+0  10806-3 0  9993
2 37190  52.0041 315.0276 0000127  93.2763 281.4754 12.62255642550015
GLOBALSTAR M077 [+]     
1 37191U 10054D   22260.33166729 -.00000095  00000+0  48693-4 0  9998
2 37191  52.0056 271.8147 0000359  75.6311  29.3900 12.62265988550373
GLOBALSTAR M075 [+]     
1 37192U 10054E   22260.43074747 -.00000099  00000+0  28540-4 0  9991
2 37192  51.9974 357.7573 0000450 118.6383 317.7922 12.62267765549244
GLOBALSTAR M073 [+]     
1 37193U 10054F   22260.35780630 -.00000092  00000+0  66124-4 0  9991
2 37193  52.0043 271.0368 0000319  84.6823  19.6514 12.62267465551064
GLOBALSTAR M083 [+]     
1 37739U 11033A   22260.30048260 -.00000110  00000+0 -37135-4 0  9998
2 37739  51.9848 221.3101 0000408 106.7194  38.7191 12.62269957520078
GLOBALSTAR M088 [+]     
1 37740U 11033B   22260.41263881 -.00000099  00000+0  29245-4 0  9998
2 37740  51.9720 127.3062 0000536  95.0479 319.4238 12.62265881515637
GLOBALSTAR M091 [+]     
1 37741U 11033C   22260.49793749 -.00000103  00000+0  17038-5 0  9992
2 37741  51.9991  88.8043 0000679 104.4704 276.9590 12.62267596516434
GLOBALSTAR M085 [+]     
1 37742U 11033D   22260.40847380 -.00000102  00000+0  11722-4 0  9997
2 37742  51.9882  41.0026 0000672 105.6137 289.5618 12.62267511516935
GLOBALSTAR M081 [+]     
1 37743U 11033E   22260.35148848 -.00000107  00000+0 -15917-4 0  9991
2 37743  51.9975  43.3438 0000469 111.4226 264.5830 12.62263316517073
GLOBALSTAR M089 [+]     
1 37744U 11033F   22260.54911605 -.00000096  00000+0  41346-4 0  9993
2 37744  51.9959 357.1619 0000551  72.4112 301.7062 12.62267764517943
GLOBALSTAR M084 [+]     
1 38040U 11080A   22260.35783576 -.00000082  00000+0  12299-3 0  9997
2 38040  51.9991 224.5012 0000484  46.6915 117.5386 12.62268496495896
GLOBALSTAR M080 [+]     
1 38041U 11080B   22260.32815675 -.00000091  00000+0  69725-4 0  9998
2 38041  52.0042 225.8464 0000488  33.2449 115.4021 12.62268752496012
GLOBALSTAR M082 [+]     
1 38042U 11080C   22260.50448251 -.00000084  00000+0  10846-3 0  9992
2 38042  52.0070 180.6491 0000793 102.9697  68.1714 12.62271153496742
GLOBALSTAR M092 [+]     
1 38043U 11080D   22260.28578509 -.00000102  00000+0  92406-5 0  9993
2 38043  52.0077 271.6391 0000614  60.9955 315.4018 12.62263674495172
GLOBALSTAR M090 [+]     
1 38044U 11080E   22260.53084081 -.00000083  00000+0  11454-3 0  9999
2 38044  51.9879 175.6714 0000469  87.5076  83.6057 12.62266136496860
GLOBALSTAR M086 [+]     
1 38045U 11080F   22260.47787110 -.00000096  00000+0  45146-4 0  9996
2 38045  51.9891 176.3043 0000611 276.1872 254.9487 12.62265378496808
GLOBALSTAR M097 [+]     
1 39072U 13005A   22260.54616186 -.00000106  00000+0 -14665-4 0  9993
2 39072  52.0039  89.6223 0000614 114.6864 245.4067 12.62275166444067
GLOBALSTAR M093 [+]     
1 39073U 13005B   22260.51946325 -.00000107  00000+0 -17394-4 0  9995
2 39073  51.9805  84.6124 0000600 121.5181 238.5744 12.62264858444012
GLOBALSTAR M094 [+]     
1 39074U 13005C   22260.51961001 -.00000094  00000+0  56091-4 0  9995
2 39074  51.9988 357.9940 0000491 115.7366 244.3552 12.62268780445645
GLOBALSTAR M096 [+]     
1 39075U 13005D   22260.53292108 -.00000106  00000+0 -10057-4 0  9990
2 39075  52.0086  45.6810 0000570 116.1092 243.9833 12.62269838444543
GLOBALSTAR M078 [+]     
1 39076U 13005E   22260.34804459 -.00000187  00000+0 -46688-3 0  9995
2 39076  51.9865 132.1209 0001361 102.7908 257.3111 12.62262427443147
GLOBALSTAR M095 [+]     
1 39077U 13005F   22260.37415316 -.00000094  00000+0  55916-4 0  9990
2 39077  51.9788 129.7349 0001009 111.6836 248.4138 12.62270848443008
GLOBALSTAR FM15 [+]     
1 52888U 22064A   22260.36762392 -.00000128  00000+0  00000+0 0  9995
2 52888  51.9779 275.8314 0009862 182.1403 177.9455 13.37541509 12037
